NORAD_CAT_ID,OBJECT_NAME,OBJECT_TYPE,EPOCH,MEAN_MOTION,ECCENTRICITY,INCLINATION,RA_OF_ASC_NODE,ARG_OF_PERICENTER,MEAN_ANOMALY,BSTAR,MEAN_MOTION_DOT,MEAN_MOTION_DDOT,TLE_LINE0,TLE_LINE1,TLE_LINE2,SEMIMAJOR_AXIS,PERIOD,APOGEE,PERIGEE,DECAYED
50812.0,STARLINK-3338,PAYLOAD,2022-05-12 20:00:01,15.08859839,0.0001645,53.2134,309.8539,44.9647,11.8275,-0.001615,-0.00025913,0.0,0 STARLINK-3338,1 50812U 22001K   22132.83334491 -.00025913  00000-0 -16150-2 0  9993,2 50812  53.2134 309.8539 0001645  44.9647  11.8275 15.08859839 20915,6917.82,95.436,540.823,538.547,0.0
50812.0,STARLINK-3338,PAYLOAD,2022-05-12 22:00:00,15.08834067,0.0001622,53.2134,309.4799,42.2037,107.4999,0.0014464,0.00022803,0.0,0 STARLINK-3338,1 50812U 22001K   22132.91667824  .00022803  00000-0  14464-2 0  9990,2 50812  53.2134 309.4799 0001622  42.2037 107.4999 15.08834067  1301,6917.899,95.438,540.886,538.641,0.0
50812.0,STARLINK-3338,PAYLOAD,2022-05-13 14:00:01,15.08853841,0.0001567,53.2138,306.4851,49.5855,123.3042,-0.002553,-0.00040705,0.0,0 STARLINK-3338,1 50812U 22001K   22133.58334491 -.00040705  00000-0 -25530-2 0  9994,2 50812  53.2138 306.4851 0001567  49.5855 123.3042 15.08853841  1304,6917.8380000000025,95.437,540.7869999999998,538.619,0.0
50812.0,STARLINK-3338,PAYLOAD,2022-05-13 22:00:00,15.08803185,0.0001701,53.2137,304.99,41.7112,142.7828,0.0016384,0.00025857,0.0,0 STARLINK-3338,1 50812U 22001K   22133.91667824  .00025857  00000-0  16384-2 0  9996,2 50812  53.2137 304.9900 0001701  41.7112 142.7828 15.08803185 21070,6917.993,95.44,541.035,538.681,0.0
50812.0,STARLINK-3338,PAYLOAD,2022-05-14 14:00:01,15.08845634,0.0001563,53.2142,301.9955,46.8671,160.7609,-0.00047433,-7.829999999999999e-05,0.0,0 STARLINK-3338,1 50812U 22001K   22134.58334491 -.00007830  00000-0 -47433-3 0  9994,2 50812  53.2142 301.9955 0001563  46.8671 160.7609 15.08845634  1301,6917.863,95.437,540.809,538.6469999999998,0.0
50812.0,STARLINK-3338,PAYLOAD,2022-05-14 22:00:00,15.088223800000002,0.000173,53.214,300.5002,40.4661,178.7669,0.0039741,0.0006349999999999,0.0,0 STARLINK-3338,1 50812U 22001K   22134.91667824  .00063500  00000-0  39741-2 0  9996,2 50812  53.2140 300.5002 0001730  40.4661 178.7669 15.08822380  1300,6917.934,95.439,540.996,538.602,0.0
50812.0,STARLINK-3338,PAYLOAD,2022-05-15 06:00:00,15.08856979,0.0001584,53.2142,299.0017,46.4864,184.3528,-0.00086016,-0.00013958,0.0,0 STARLINK-3338,1 50812U 22001K   22135.25001157 -.00013958  00000-0 -86016-3 0  9997,2 50812  53.2142 299.0017 0001584  46.4864 184.3528 15.08856979 21274,6917.828,95.436,540.789,538.5980000000002,0.0
50812.0,STARLINK-3338,PAYLOAD,2022-05-15 14:00:01,15.08776866,0.0001665999999999,53.2166,297.5016,46.0394,196.455,0.002647,0.00042018,0.0,0 STARLINK-3338,1 50812U 22001K   22135.58335648  .00042018  00000-0  26470-2 0  9992,2 50812  53.2166 297.5016 0001666  46.0394 196.4550 15.08776866 21339,6918.073,95.442,541.091,538.786,0.0
50812.0,STARLINK-3338,PAYLOAD,2022-05-15 22:00:00,15.08820584,0.0001751,53.2141,296.0104,40.6414,213.3968,0.0028102,0.00044697,0.0,0 STARLINK-3338,1 50812U 22001K   22135.91667824  .00044697  00000-0  28102-2 0  9992,2 50812  53.2141 296.0104 0001751  40.6414 213.3968 15.08820584 21386,6917.94,95.439,541.016,538.5930000000002,0.0
50812.0,STARLINK-3338,PAYLOAD,2022-05-16 06:00:02,15.08825165,0.0001579,53.2143,294.512,46.5979,219.0996,0.00019477,2.812e-05,0.0,0 STARLINK-3338,1 50812U 22001K   22136.25002315  .00002812  00000-0  19477-3 0  9997,2 50812  53.2143 294.5120 0001579  46.5979 219.0996 15.08825165 21438,6917.926,95.438,540.883,538.698,0.0
50812.0,STARLINK-3338,PAYLOAD,2022-05-16 14:00:01,15.08847088,0.0001634,53.2145,293.0164,48.1106,229.0922,-0.0022724,-0.00036279,0.0,0 STARLINK-3338,1 50812U 22001K   22136.58334491 -.00036279  00000-0 -22724-2 0  9990,2 50812  53.2145 293.0164 0001634  48.1106 229.0922 15.08847088  1306,6917.859,95.437,540.854,538.5930000000002,0.0
50812.0,STARLINK-3338,PAYLOAD,2022-05-16 22:00:00,15.08806961,0.0001721999999999,53.214,291.5209,40.4529,248.3507,0.0022383,0.00035482,0.0,0 STARLINK-3338,1 50812U 22001K   22136.91667824  .00035482  00000-0  22383-2 0  9990,2 50812  53.2140 291.5209 0001722  40.4529 248.3507 15.08806961  1304,6917.981,95.44,541.038,538.655,0.0
50812.0,STARLINK-3338,PAYLOAD,2022-05-17 12:00:00,15.08850104,0.0001564,53.2145,288.9009,48.4967,170.5625,6.1277e-05,6.88e-06,0.0,0 STARLINK-3338,1 50812U 22001K   22137.50001157  .00000688  00000-0  61277-4 0  9994,2 50812  53.2145 288.9009 0001564  48.4967 170.5625 15.08850104 21616,6917.85,95.437,540.7959999999998,538.633,0.0
50812.0,STARLINK-3338,PAYLOAD,2022-05-17 14:00:01,15.08861777,0.0001621,53.2143,288.5272,46.2618,265.7592,-0.0017277999999999,-0.00027697,0.0,0 STARLINK-3338,1 50812U 22001K   22137.58335648 -.00027697  00000-0 -17278-2 0  9998,2 50812  53.2143 288.5272 0001621  46.2618 265.7592 15.08861777  1307,6917.814,95.436,540.8,538.557,0.0
50812.0,STARLINK-3338,PAYLOAD,2022-05-17 20:00:01,15.0884232,0.0001825,53.2141,287.4059,43.0524,187.6282,0.00047522,7.284e-05,0.0,0 STARLINK-3338,1 50812U 22001K   22137.83334491  .00007284  00000-0  47522-3 0  9995,2 50812  53.2141 287.4059 0001825  43.0524 187.6282 15.08842320  1304,6917.873000000001,95.437,541.001,538.476,0.0
50812.0,STARLINK-3338,PAYLOAD,2022-05-18 14:00:01,15.08854975,0.0001836,53.2139,284.038,49.7342,297.03,-0.000984,-0.00015921,0.0,0 STARLINK-3338,1 50812U 22001K   22138.58334491 -.00015921  00000-0 -98400-3 0  9998,2 50812  53.2139 284.0380 0001836  49.7342 297.0300 15.08854975  1300,6917.835,95.437,540.97,538.43,0.0
50812.0,STARLINK-3338,PAYLOAD,2022-05-18 20:00:01,15.08839834,0.0001945,53.2138,282.9167,45.7741,219.6962,-0.00015652,-2.778e-05,0.0,0 STARLINK-3338,1 50812U 22001K   22138.83334491 -.00002778  00000-0 -15652-3 0  9990,2 50812  53.2138 282.9167 0001945  45.7741 219.6962 15.08839834 21829,6917.880999999999,95.438,541.091,538.4,0.0
50812.0,STARLINK-3338,PAYLOAD,2022-05-18 22:00:00,15.08853593,0.0001921,53.2135,282.5423,44.419,313.9474,-0.0025787,-0.0004111,0.0,0 STARLINK-3338,1 50812U 22001K   22138.91667824 -.00041110  00000-0 -25787-2 0  9990,2 50812  53.2135 282.5423 0001921  44.4190 313.9474 15.08853593  1300,6917.839,95.437,541.033,538.375,0.0
50812.0,STARLINK-3338,PAYLOAD,2022-05-19 14:00:01,15.08831249,0.0001982,53.2137,279.54900000000004,50.2236,331.3581,-0.00047804,-7.886e-05,0.0,0 STARLINK-3338,1 50812U 22001K   22139.58335648 -.00007886  00000-0 -47804-3 0  9997,2 50812  53.2137 279.5490 0001982  50.2236 331.3581 15.08831249  1302,6917.906999999997,95.438,541.143,538.401,0.0
50812.0,STARLINK-3338,PAYLOAD,2022-05-19 22:00:00,15.08849986,0.0002022,53.2133,278.0531,44.1006,349.0021,-0.00053479,-8.792e-05,0.0,0 STARLINK-3338,1 50812U 22001K   22139.91667824 -.00008792  00000-0 -53479-3 0  9990,2 50812  53.2133 278.0531 0002022  44.1006 349.0021 15.08849986 21989,6917.85,95.437,541.114,538.316,0.0
50812.0,STARLINK-3338,PAYLOAD,2022-05-20 14:00:01,15.08838949,0.0002063,53.2136,275.0599,48.3846,7.9113,-0.0012049,-0.00019413,0.0,0 STARLINK-3338,1 50812U 22001K   22140.58334491 -.00019413  00000-0 -12049-2 0  9995,2 50812  53.2136 275.0599 0002063  48.3846   7.9113 15.08838949  1309,6917.884,95.438,541.1759999999998,538.321,0.0
50812.0,STARLINK-3338,PAYLOAD,2022-05-20 22:00:00,15.08841281,0.0002131,53.2136,273.5638,43.7575,24.1198,0.00098376,0.00015404,0.0,0 STARLINK-3338,1 50812U 22001K   22140.91667824  .00015404  00000-0  98376-3 0  9993,2 50812  53.2136 273.5638 0002131  43.7575  24.1198 15.08841281  1307,6917.876,95.437,541.216,538.2669999999998,0.0
50812.0,STARLINK-3338,PAYLOAD,2022-05-21 06:00:00,15.08823998,0.0001885,53.2136,272.0656,47.8015,31.6853,0.0020927,0.0003316,0.0,0 STARLINK-3338,1 50812U 22001K   22141.25001157  .00033160  00000-0  20927-2 0  9997,2 50812  53.2136 272.0656 0001885  47.8015  31.6853 15.08823998 22185,6917.929,95.439,541.0980000000002,538.49,0.0
50812.0,STARLINK-3338,PAYLOAD,2022-05-21 14:00:01,15.08840944,0.0001977,53.2137,270.5706,43.6093,47.5321,-0.0015665999999999,-0.00025135,0.0,0 STARLINK-3338,1 50812U 22001K   22141.58335648 -.00025135  00000-0 -15666-2 0  9997,2 50812  53.2137 270.5706 0001977  43.6093  47.5321 15.08840944  1304,6917.878000000002,95.437,541.11,538.375,0.0
50812.0,STARLINK-3338,PAYLOAD,2022-05-21 20:00:01,15.08827968,0.0002005,53.2136,269.4489,38.5754,331.2002,0.001634,0.00025804,0.0,0 STARLINK-3338,1 50812U 22001K   22141.83334491  .00025804  00000-0  16340-2 0  9991,2 50812  53.2136 269.4489 0002005  38.5754 331.2002 15.08827968 22277,6917.917,95.438,541.169,538.395,0.0
50812.0,STARLINK-3338,PAYLOAD,2022-05-21 22:00:00,15.0885311,0.000199,53.2135,269.0744,38.5615,64.1052,-0.0015533,-0.00024933,0.0,0 STARLINK-3338,1 50812U 22001K   22141.91667824 -.00024933  00000-0 -15533-2 0  9996,2 50812  53.2135 269.0744 0001990  38.5615  64.1052 15.08853110  1300,6917.84,95.437,541.082,538.3290000000002,0.0
50812.0,STARLINK-3338,PAYLOAD,2022-05-22 14:00:01,15.08858802,0.0001964,53.2138,266.0814,41.4077,84.4428,-0.0039069,-0.00061965,0.0,0 STARLINK-3338,1 50812U 22001K   22142.58334491 -.00061965  00000-0 -39069-2 0  9997,2 50812  53.2138 266.0814 0001964  41.4077  84.4428 15.08858802 22380,6917.823,95.436,541.047,538.3290000000002,0.0
50812.0,STARLINK-3338,PAYLOAD,2022-05-22 22:00:01,15.08832812,0.0001979,53.2135,264.5847,37.9837,99.5308,0.00063171,9.778e-05,0.0,0 STARLINK-3338,1 50812U 22001K   22142.91668981  .00009778  00000-0  63171-3 0  9992,2 50812  53.2135 264.5847 0001979  37.9837  99.5308 15.08832812 22439,6917.901999999999,95.438,541.136,538.398,0.0
50812.0,STARLINK-3338,PAYLOAD,2022-05-23 14:00:01,15.08869696,0.0001897,53.2137,261.5919,39.4925,121.1309,-0.0030974,-0.00049287,0.0,0 STARLINK-3338,1 50812U 22001K   22143.58334491 -.00049287  00000-0 -30974-2 0  9997,2 50812  53.2137 261.5919 0001897  39.4925 121.1309 15.08869696  1308,6917.79,95.436,540.967,538.342,0.0
